STARLINK-6030           
1 56107U 23046Q   23112.58334491  .00025931  00000+0  47343-3 0  9993
2 56107  42.9995 122.4796 0001509 272.0121 311.0508 15.48907449  1303
STARLINK-6081           
1 56108U 23046R   23112.58334491  .00031463  00000+0  57288-3 0  9990
2 56108  42.9989 122.4928 0001456 272.1183 304.5632 15.48900470  1306
STARLINK-6083           
1 56109U 23046S   23112.58334491  .00027606  00000+0  50361-3 0  9990
2 56109  42.9999 122.4834 0001532 262.9807 318.8097 15.48902401  1308
STARLINK-6082           
1 56110U 23046T   23112.58334491  .00015645  00000+0  28847-3 0  9996
2 56110  42.9990 122.4876 0001525 270.1915 309.0436 15.48902037  1304
STARLINK-6084           
1 56111U 23046U   23112.58334491  .00005873  00000+0  11215-3 0  9990
2 56111  42.9996 122.4670 0001339 264.6098 323.5676 15.48913793  1304
STARLINK-6080           
1 56112U 23046V   23112.58334491 -.00026823  00000+0 -48032-3 0  9998
2 56112  42.9991 122.4726 0001443 271.1483 314.4702 15.48929966  1307
STARLINK-6113           
1 56113U 23046W   23112.58334491 -.00011217  00000+0 -19700-3 0  9990
2 56113  43.0000 122.4648 0001459 268.3898 321.0657 15.48921618  1308
STARLINK-6103           
1 56114U 23046X   23112.58334491  .00007220  00000+0  13646-3 0  9991
2 56114  42.9994 122.4763 0001508 269.6176 314.7247 15.48915783  1305
STARLINK-6101           
1 56115U 23046Y   23112.58334491  .00017009  00000+0  31298-3 0  9991
2 56115  43.0000 122.4584 0001799 269.4656 322.5466 15.48907148  1306
STARLINK-6114           
1 56116U 23046Z   23112.58334491  .00013099  00000+0  24255-3 0  9992
2 56116  42.9988 122.4689 0001488 257.8043 329.1002 15.48906788  1300
STARLINK-6107           
1 56117U 23046AA  23112.10139363  .00021469  00000+0  16655-3 0  9997
2 56117  43.0011 123.6484 0001648 256.1262 103.9422 15.71382493  3661
STARLINK-6105           
1 56118U 23046AB  23112.58334491 -.00015229  00000+0 -26972-3 0  9991
2 56118  42.9994 122.4606 0001411 265.7116 325.0193 15.48925524  1308
STARLINK-6091           
1 56119U 23046AC  23112.41888950 -.00000813  00000+0 -27574-5 0  9992
2 56119  42.9981 121.7245 0001055 272.8789  87.1958 15.71362717  3712
STARLINK-6079           
1 56120U 23046AD  23112.03793907  .00036131  00000+0  27732-3 0  9993
2 56120  42.9993 124.0308 0001209 312.2743  47.8023 15.71394913  3655
STARLINK-6092           
1 56121U 23046AE  23112.48255529  .00028833  00000+0  22245-3 0  9990
2 56121  43.0001 121.3439 0001371 287.8362  72.2356 15.71366957  3723
STARLINK-6094           
1 56122U 23046AF  23112.58334491  .00006088  00000+0  11605-3 0  9994
2 56122  42.9992 122.4539 0001366 265.0009 328.2907 15.48911194  1305
STARLINK-6115           
1 56123U 23046AH  23112.03720339  .00092669  00000+0  70049-3 0  9992
2 56123  43.0007 124.0273 0001461 259.6223 100.4480 15.71416016  3656
STARLINK-6126           
1 56124U 23046AJ  23112.10128894  .00039306  00000+0  30129-3 0  9993
2 56124  42.9996 123.6456 0001522 311.7961  48.2776 15.71393011  3664
STARLINK-6119           
1 56125U 23046AK  23112.10087119  .00068651  00000+0  52311-3 0  9990
2 56125  43.0007 123.6438 0002075 294.1974  65.8677 15.71334024  3666
STARLINK-6124           
1 56126U 23046AL  23112.41846982  .00017389  00000+0  13568-3 0  9999
2 56126  42.9994 121.7235 0001048 311.8148  48.2630 15.71371075  3710
STARLINK-6104           
1 56127U 23046AM  23112.10034671  .00067296  00000+0  51271-3 0  9995
2 56127  43.0015 123.6404 0003398 304.4910  55.5636 15.71340455  3660
STARLINK-6122           
1 56128U 23046AN  23112.03740742  .00036498  00000+0  28007-3 0  9992
2 56128  42.9967 124.0266 0000645 204.3356 155.7482 15.71396174  3650
STARLINK-6121           
1 56129U 23046AP  23111.38029800  .00013320  00000+0  93530-4 0  9998
2 56129  43.0003 127.6923 0000558 138.4875 221.6036 15.74060270  3554
STARLINK-6117           
1 56130U 23046AQ  23112.10056135  .00000314  00000+0  58421-5 0  9992
2 56130  42.9994 123.6388 0001829 300.6606  59.4082 15.71351797  3665
STARLINK-6120           
1 56131U 23046AR  23112.09980543  .00000459  00000+0  69380-5 0  9996
2 56131  43.0008 123.6340 0001097 278.8757  81.1986 15.71368345  3664
STARLINK-6071           
1 56132U 23046AS  23112.41826003  .00002359  00000+0  21429-4 0  9995
2 56132  42.9992 121.7185 0001915 258.0803 101.9850 15.71356670  3717
STARLINK-5566           
1 56133U 23046AT  23112.16348636  .00001260  00000+0  13057-4 0  9997
2 56133  42.9996 123.2516 0001702 291.9892  68.0795 15.71355840  3679
STARLINK-5564           
1 56134U 23046AU  23112.41794436  .00002801  00000+0  24790-4 0  9997
2 56134  42.9994 121.7192 0001052 296.4767  63.5992 15.71363903  3713
STARLINK-5563           
1 56135U 23046AV  23112.16296611  .00060501  00000+0  45657-3 0  9997
2 56135  42.9971 123.2487 0001356 301.9549  58.1186 15.71608740  3671
STARLINK-5489           
1 56136U 23046AW  23112.03646650  .00028130  00000+0  21690-3 0  9999
2 56136  42.9994 124.0201 0001231 281.8667  78.2063 15.71392478  3652
STARLINK-5090           
1 56137U 23046AX  23112.16264683  .00017162  00000+0  13392-3 0  9999
2 56137  42.9991 123.2469 0001445 303.9498  56.1233 15.71378039  3675
STARLINK-4774           
1 56138U 23046AY  23112.48087922  .00073294  00000+0  55223-3 0  9991
2 56138  42.9996 121.3298 0001051 293.2622  66.8135 15.71579655  3725
STARLINK-5378           
1 56139U 23046AZ  23111.08220882  .00100654  00000+0  75074-3 0  9998
2 56139  42.9996 129.7639 0001316 247.2365 112.8364 15.71701277  3503
STARLINK-5375           
1 56140U 23046BA  23112.00002315  .00057860  00000+0  44230-3 0  9992
2 56140  42.9996 124.2320 0000847 283.7052 232.3372 15.71318725  1303
STARLINK-5377           
1 56141U 23046BB  23112.16253334 -.00003967  00000+0 -26799-4 0  9991
2 56141  43.0001 123.2459 0001350 262.6588  97.4127 15.71375486  3672
STARLINK-5376           
1 56142U 23046BC  23112.48057868 -.00178475  00000+0 -13748-2 0  9996
2 56142  42.9990 121.3277 0001890 277.6631  82.4023 15.71560122  3727
STARLINK-5016           
1 56143U 23046BD  23112.16233461  .00023845  00000+0  18472-3 0  9995
2 56143  42.9994 123.2432 0000765 285.7428  74.3356 15.71360319  3679
STARLINK-5374           
1 56144U 23046BE  23112.58334491 -.00004242  00000+0 -28923-4 0  9992
2 56144  42.9996 120.7035 0001322 265.1255 317.0964 15.71354492  1308
STARLINK-5370           
1 56145U 23046BF  23112.16222437  .00021854  00000+0  16950-3 0  9995
2 56145  42.9997 123.2437 0001544 287.1583  72.9116 15.71377743  3670
STARLINK-5111           
1 56146U 23046BG  23112.16244522  .00136624  00000+0  10333-2 0  9995
2 56146  43.0003 123.2447 0004764 320.2596  39.7922 15.71229861  3675
STARLINK-5140           
1 56147U 23046BH  23112.16201552  .00012907  00000+0  10164-3 0  9992
2 56147  42.9995 123.2406 0000912 291.8174  68.2597 15.71372999  3671
STARLINK-5089           
1 56148U 23046BJ  23112.16212164  .00091181  00000+0  68946-3 0  9996
2 56148  42.9991 123.2416 0001211 275.1134  84.9595 15.71414965  3676
FALCON 9 DEB            
1 56149U 23046BK  23112.03759999  .00672641  21542-3  11118-2 0  9997
2 56149  43.0068 120.4398 0022358 138.3666 221.8920 16.01737446  3699
FALCON 9 DEB            
1 56150U 23046BL  23112.21168896  .00735142  26750-3  10830-2 0  9991
2 56150  43.0022 119.1442 0020386 142.3187 217.9125 16.03740287  3724
FALCON 9 DEB            
1 56151U 23046BM  23112.07106590  .00673477  22452-3  96007-3 0  9997
2 56151  43.0002 119.7873 0019601 131.8771 228.3785 16.04303871  3708
FALCON 9 DEB            
1 56152U 23046BN  23112.07540120  .00622823  18762-3  95613-3 0  9999
2 56152  42.9960 119.8207 0018713 133.1425 227.1022 16.03122565  3705
2023-047A               
1 56153U 23047A   23112.77371528 -.00247817  00000+0 -12869-1 0  9992
2 56153  97.4373 300.5743 0011667 178.6188   7.9071 15.17218461  3549
2023-047B               
1 56154U 23047B   23112.48181277 -.00274212  00000+0 -14075-1 0  9991
2 56154  97.4400 300.2966 0008020 174.9825 244.3041 15.17786807  3505
2023-047C               
1 56155U 23047C   23112.61880532 -.00212191  00000+0 -10934-1 0  9995
2 56155  97.4373 300.4328 0014055 192.4314 256.7728 15.17289455  3520
2023-047D               
1 56156U 23047D   23112.48050591 -.00326845  00000+0 -16881-1 0  9994
2 56156  97.4403 300.3043 0010000 196.2620 247.5036 15.17796198  3501
2023-048A               
1 56157U 23048A   23112.41493388  .00000031  00000+0  20453-3 0  9990
2 56157  63.4032 176.2281 0010289 305.0367  54.9675 13.45270864  2980
2023-048B               
1 56158U 23048B   23112.60866131 -.00000027  00000+0  76709-4 0  9994
2 56158  63.4109 173.3042 0124405  42.8376 318.2274 13.68400744  3058
2023-049A               
1 56159U 23049A   23112.67067222  .00050395  00000+0  18376-2 0  9993
2 56159  97.4105 257.7317 0013060 217.1413 198.8962 15.27915171  3077
2023-050A               
1 56162U 23050A   23112.23057732  .00000089  00000+0  69509-4 0  9997
2 56162  80.9996  96.2136 0006224 173.7229 186.4006 13.84579969  2711
2023-050B               
1 56163U 23050B   23112.37428757  .00000011  00000+0  00000+0 0  9993
2 56163  80.9984  96.0760 0006444 170.2336 189.9005 13.84636307  2745
2023-050C               
1 56164U 23050C   23112.22912403  .00000092  00000+0  71736-4 0  9992
2 56164  80.9981  96.2088 0006495 169.9883 190.1404 13.84682848  2711
2023-050D               
1 56165U 23050D   23112.22879710  .00000095  00000+0  74407-4 0  9997
2 56165  81.0020  96.2161 0006575 168.9781 191.1520 13.84706151  2652
2023-050E               
1 56166U 23050E   23112.37237756  .00000011  00000+0  00000+0 0  9993
2 56166  81.0000  96.0718 0009246 167.8488 192.2658 13.84769216  2674
2023-050F               
1 56167U 23050F   23112.37208565  .00000011  00000+0  00000+0 0  9990
2 56167  81.0004  96.0787 0007520 163.7307 196.4092 13.84790769  2678
